[{"OBJECT_NAME":"STARLINK-3341","OBJECT_ID":"2022-001Q","EPOCH":"2026-03-09T12:21:40.533408","MEAN_MOTION":15.08835441,"ECCENTRICITY":0.00013722,"INCLINATION":53.2184,"RA_OF_ASC_NODE":169.9072,"ARG_OF_PERICENTER":102.0885,"MEAN_ANOMALY":258.0261,"EPHEMERIS_TYPE":0,"CLASSIFICATION_TYPE":"U","NORAD_CAT_ID":50817,"ELEMENT_SET_NO":999,"REV_AT_EPOCH":23038,"BSTAR":9.197913e-6,"MEAN_MOTION_DOT":-1.42e-6,"MEAN_MOTION_DDOT":0},{"OBJECT_NAME":"CZ-6A DEB","OBJECT_ID":"2024-140ZB","EPOCH":"2026-03-09T13:53:53.181600","MEAN_MOTION":15.04943741,"ECCENTRICITY":0.0099448,"INCLINATION":89.0521,"RA_OF_ASC_NODE":283.407,"ARG_OF_PERICENTER":138.6562,"MEAN_ANOMALY":222.2259,"EPHEMERIS_TYPE":0,"CLASSIFICATION_TYPE":"U","NORAD_CAT_ID":61434,"ELEMENT_SET_NO":999,"REV_AT_EPOCH":8386,"BSTAR":0.0022399,"MEAN_MOTION_DOT":0.00035579,"MEAN_MOTION_DDOT":0}]
